[{"OBJECT_NAME":"GHGSAT-C4","OBJECT_ID":"2022-057Q","EPOCH":"2026-03-09T22:58:28.655904","MEAN_MOTION":15.3293316,"ECCENTRICITY":0.0007552,"INCLINATION":97.6357,"RA_OF_ASC_NODE":210.0193,"ARG_OF_PERICENTER":100.0033,"MEAN_ANOMALY":260.2061,"EPHEMERIS_TYPE":0,"CLASSIFICATION_TYPE":"U","NORAD_CAT_ID":52746,"ELEMENT_SET_NO":999,"REV_AT_EPOCH":21033,"BSTAR":0.00030289005,"MEAN_MOTION_DOT":9.562e-5,"MEAN_MOTION_DDOT":0},{"OBJECT_NAME":"STARLINK-35553","OBJECT_ID":"2025-237G","EPOCH":"2026-03-09T07:42:07.087968","MEAN_MOTION":15.30197444,"ECCENTRICITY":0.0001544,"INCLINATION":53.1614,"RA_OF_ASC_NODE":41.373,"ARG_OF_PERICENTER":85.7093,"MEAN_ANOMALY":274.4084,"EPHEMERIS_TYPE":0,"CLASSIFICATION_TYPE":"U","NORAD_CAT_ID":66120,"ELEMENT_SET_NO":999,"REV_AT_EPOCH":2255,"BSTAR":0.00092205888,"MEAN_MOTION_DOT":0.00027047,"MEAN_MOTION_DDOT":0}]
